OBJECT_NAME,OBJECT_ID,EPOCH,MEAN_MOTION,ECCENTRICITY,INCLINATION,RA_OF_ASC_NODE,ARG_OF_PERICENTER,MEAN_ANOMALY,EPHEMERIS_TYPE,CLASSIFICATION_TYPE,NORAD_CAT_ID,ELEMENT_SET_NO,REV_AT_EPOCH,BSTAR,MEAN_MOTION_DOT,MEAN_MOTION_DDOT
GLOBALSTAR M069,2007-020C,2026-06-23T21:57:56.317824,12.23471321,.00021844,52.0019,233.0840,162.8189,8.5820,0,U,31573,999,87962,.67476061E-4,-.85E-6,0
GLOBALSTAR M072,2007-020D,2026-06-24T00:02:47.287680,11.91658388,.00014929,51.9935,82.1025,349.1250,23.6959,0,U,31574,999,87579,-.7442234E-5,-.85E-6,0
GLOBALSTAR M066,2007-048C,2026-06-23T21:20:22.654176,12.30386898,.00055944,51.9605,38.6732,58.3354,315.1701,0,U,32265,999,86105,-.39559393E-3,-.141E-5,0
GLOBALSTAR M079,2010-054A,2026-06-24T00:21:22.187232,12.62266171,.00008589,52.0043,87.8852,39.4121,334.3432,0,U,37188,999,72341,-.111875E-5,-.104E-5,0
GLOBALSTAR M074,2010-054B,2026-06-24T01:27:13.025952,12.62268374,.00006883,52.0021,87.0098,61.7428,40.1986,0,U,37189,999,72402,-.29970535E-4,-.109E-5,0
GLOBALSTAR M076,2010-054C,2026-06-24T02:06:43.573248,12.62261897,.00008809,52.0027,87.1301,55.8517,50.7389,0,U,37190,999,72374,-.14988301E-4,-.106E-5,0
GLOBALSTAR M077,2010-054D,2026-06-24T05:12:05.389056,11.67547879,.00026201,51.9922,161.4528,185.3352,187.4056,0,U,37191,999,72196,.38796816E-3,-.57E-6,0
GLOBALSTAR M075,2010-054E,2026-06-24T04:18:18.140832,12.62267352,.00003373,51.9935,128.9022,31.9403,70.1182,0,U,37192,999,72282,.3133647E-4,-.98E-6,0
GLOBALSTAR M073,2010-054F,2026-06-23T22:08:29.666976,12.62266539,.00010366,52.0074,43.7904,62.0524,310.8963,0,U,37193,999,72478,-.11166158E-4,-.106E-5,0
GLOBALSTAR M083,2011-033A,2026-06-24T04:59:28.824000,12.62263442,.00009664,51.9877,351.1401,77.7431,94.1832,0,U,37739,999,69383,.12788633E-3,-.81E-6,0
GLOBALSTAR M088,2011-033B,2026-06-23T22:39:53.696736,12.62268906,.0000562,52.0208,258.3892,136.7460,35.1854,0,U,37740,999,68934,.15949457E-4,-.101E-5,0
GLOBALSTAR M091,2011-033C,2026-06-23T21:04:16.609728,12.62264084,.00001386,51.9979,221.5467,170.5615,0.3764,0,U,37741,999,69012,.45077881E-4,-.96E-6,0
GLOBALSTAR M085,2011-033D,2026-06-24T07:19:32.568384,12.62264131,.00002754,52.0096,171.5421,345.5032,28.0199,0,U,37742,999,69069,.87193917E-4,-.88E-6,0
GLOBALSTAR M081,2011-033E,2026-06-24T06:03:23.596416,12.62265153,.00001804,51.9927,174.1314,38.4519,334.3431,0,U,37743,999,69083,.10662572E-3,-.85E-6,0
GLOBALSTAR M089,2011-033F,2026-06-24T03:12:14.284224,12.62267313,.00004325,51.9915,128.6501,78.0652,295.2900,0,U,37744,999,69166,.49929827E-4,-.95E-6,0
GLOBALSTAR M084,2011-080A,2026-06-24T06:15:08.262720,12.62267585,.00011049,52.0028,355.7485,97.5933,73.1410,0,U,38040,999,66965,.3387822E-4,-.98E-6,0
GLOBALSTAR M080,2011-080B,2026-06-24T05:34:02.736768,12.62269608,.00004196,52.0081,357.5559,76.5665,94.5169,0,U,38041,999,66977,.83480726E-4,-.89E-6,0
GLOBALSTAR M082,2011-080C,2026-06-24T04:02:14.049024,12.62263716,.00004978,52.0092,313.2519,104.5113,66.5940,0,U,38042,999,67047,.38091782E-4,-.97E-6,0
GLOBALSTAR M092,2011-080D,2026-06-23T22:46:15.277152,12.62267063,.00007926,52.0095,44.3170,73.2191,299.3753,0,U,38043,999,66890,.490842E-6,-.104E-5,0
GLOBALSTAR M090,2011-080E,2026-06-24T02:46:20.865792,12.62269082,.00007437,52.0136,307.3702,100.1792,70.4848,0,U,38044,999,67058,.5761404E-5,-.103E-5,0
GLOBALSTAR M086,2011-080F,2026-06-24T03:17:33.328320,12.62286988,.00016968,51.9916,307.2231,79.3268,91.3316,0,U,38045,999,67053,.89344272E-4,-.88E-6,0
GLOBALSTAR M097,2013-005A,2026-06-23T19:32:46.357152,12.62270981,.00000769,52.0006,223.1645,82.7518,277.3357,0,U,39072,999,61774,.48313429E-4,-.95E-6,0
GLOBALSTAR M093,2013-005B,2026-06-23T18:54:05.706720,12.62266004,.00001822,52.0078,216.5937,52.2953,307.7930,0,U,39073,999,61769,.31727025E-4,-.98E-6,0
GLOBALSTAR M094,2013-005C,2026-06-24T04:24:02.649600,12.62268518,.00005881,51.9940,129.4967,21.4726,338.6165,0,U,39074,999,61935,.18673264E-4,-.1E-5,0
GLOBALSTAR M096,2013-005D,2026-06-24T06:37:30.324288,12.62265593,.00002101,52.0041,178.0225,352.6897,7.3967,0,U,39075,999,61828,.43905851E-4,-.96E-6,0
GLOBALSTAR M078,2013-005E,2026-06-23T22:22:35.888448,12.62258764,.00004369,51.9872,263.0705,256.6079,103.4739,0,U,39076,999,61686,.31854153E-3,-.47E-6,0
GLOBALSTAR M095,2013-005F,2026-06-23T23:01:05.102976,12.62263545,.00001047,52.0081,260.6029,119.7938,240.2939,0,U,39077,999,61672,.13195709E-4,-.101E-5,0
GLOBALSTAR M087,2022-064A,2026-06-23T23:20:06.216288,12.62269178,.00008572,52.0010,41.7958,52.1817,307.9127,0,U,52888,999,19199,-.401819E-5,-.104E-5,0
