GLOBALSTAR M069         
1 31573U 07020C   26174.91523516 -.00000085  00000+0  67476-4 0  9997
2 31573  52.0019 233.0840 0002184 162.8189   8.5820 12.23471321879629
GLOBALSTAR M072         
1 31574U 07020D   26175.00193620 -.00000085  00000+0 -74422-5 0  9999
2 31574  51.9935  82.1025 0001492 349.1250  23.6959 11.91658388875792
GLOBALSTAR M066         
1 32265U 07048C   26174.88915109 -.00000141  00000+0 -39559-3 0  9999
2 32265  51.9605  38.6732 0005594  58.3354 315.1701 12.30386898861052
GLOBALSTAR M079         
1 37188U 10054A   26175.01484013 -.00000104  00000+0 -11188-5 0  9999
2 37188  52.0043  87.8852 0000858  39.4121 334.3432 12.62266171723415
GLOBALSTAR M074         
1 37189U 10054B   26175.06056743 -.00000109  00000+0 -29971-4 0  9993
2 37189  52.0021  87.0098 0000688  61.7428  40.1986 12.62268374724026
GLOBALSTAR M076         
1 37190U 10054C   26175.08800432 -.00000106  00000+0 -14988-4 0  9998
2 37190  52.0027  87.1301 0000880  55.8517  50.7389 12.62261897723744
GLOBALSTAR M077         
1 37191U 10054D   26175.21672904 -.00000057  00000+0  38797-3 0  9992
2 37191  51.9922 161.4528 0002620 185.3352 187.4056 11.67547879721966
GLOBALSTAR M075         
1 37192U 10054E   26175.17937663 -.00000098  00000+0  31336-4 0  9992
2 37192  51.9935 128.9022 0000337  31.9403  70.1182 12.62267352722829
GLOBALSTAR M073         
1 37193U 10054F   26174.92256559 -.00000106  00000+0 -11166-4 0  9993
2 37193  52.0074  43.7904 0001036  62.0524 310.8963 12.62266539724789
GLOBALSTAR M083         
1 37739U 11033A   26175.20797250 -.00000081  00000+0  12789-3 0  9999
2 37739  51.9877 351.1401 0000966  77.7431  94.1832 12.62263442693831
GLOBALSTAR M088         
1 37740U 11033B   26174.94437149 -.00000101  00000+0  15949-4 0  9994
2 37740  52.0208 258.3892 0000562 136.7460  35.1854 12.62268906689345
GLOBALSTAR M091         
1 37741U 11033C   26174.87797002 -.00000096  00000+0  45078-4 0  9993
2 37741  51.9979 221.5467 0000138 170.5615   0.3764 12.62264084690121
GLOBALSTAR M085         
1 37742U 11033D   26175.30523806 -.00000088  00000+0  87194-4 0  9998
2 37742  52.0096 171.5421 0000275 345.5032  28.0199 12.62264131690691
GLOBALSTAR M081         
1 37743U 11033E   26175.25235644 -.00000085  00000+0  10663-3 0  9996
2 37743  51.9927 174.1314 0000180  38.4519 334.3431 12.62265153690839
GLOBALSTAR M089         
1 37744U 11033F   26175.13349866 -.00000095  00000+0  49930-4 0  9997
2 37744  51.9915 128.6501 0000432  78.0652 295.2900 12.62267313691665
GLOBALSTAR M084         
1 38040U 11080A   26175.26051230 -.00000098  00000+0  33878-4 0  9995
2 38040  52.0028 355.7485 0001104  97.5933  73.1410 12.62267585669655
GLOBALSTAR M080         
1 38041U 11080B   26175.23197612 -.00000089  00000+0  83481-4 0  9993
2 38041  52.0081 357.5559 0000419  76.5665  94.5169 12.62269608669773
GLOBALSTAR M082         
1 38042U 11080C   26175.16821816 -.00000097  00000+0  38092-4 0  9993
2 38042  52.0092 313.2519 0000497 104.5113  66.5940 12.62263716670476
GLOBALSTAR M092         
1 38043U 11080D   26174.94878793 -.00000104  00000+0  49084-6 0  9999
2 38043  52.0095  44.3170 0000792  73.2191 299.3753 12.62267063668903
GLOBALSTAR M090         
1 38044U 11080E   26175.11551928 -.00000103  00000+0  57614-5 0  9994
2 38044  52.0136 307.3702 0000743 100.1792  70.4848 12.62269082670589
GLOBALSTAR M086         
1 38045U 11080F   26175.13719130 -.00000088  00000+0  89344-4 0  9994
2 38045  51.9916 307.2231 0001696  79.3268  91.3316 12.62286988670534
GLOBALSTAR M097         
1 39072U 13005A   26174.81442543 -.00000095  00000+0  48313-4 0  9998
2 39072  52.0006 223.1645 0000076  82.7518 277.3357 12.62270981617740
GLOBALSTAR M093         
1 39073U 13005B   26174.78756605 -.00000098  00000+0  31727-4 0  9996
2 39073  52.0078 216.5937 0000182  52.2953 307.7930 12.62266004617693
GLOBALSTAR M094         
1 39074U 13005C   26175.18336400 -.00000100  00000+0  18673-4 0  9998
2 39074  51.9940 129.4967 0000588  21.4726 338.6165 12.62268518619351
GLOBALSTAR M096         
1 39075U 13005D   26175.27604542 -.00000096  00000+0  43906-4 0  9995
2 39075  52.0041 178.0225 0000210 352.6897   7.3967 12.62265593618284
GLOBALSTAR M078         
1 39076U 13005E   26174.93235982 -.00000047  00000+0  31854-3 0  9990
2 39076  51.9872 263.0705 0000436 256.6079 103.4739 12.62258764616867
GLOBALSTAR M095         
1 39077U 13005F   26174.95908684 -.00000101  00000+0  13196-4 0  9990
2 39077  52.0081 260.6029 0000104 119.7938 240.2939 12.62263545616729
GLOBALSTAR M087         
1 52888U 22064A   26174.97229417 -.00000104  00000+0 -40182-5 0  9992
2 52888  52.0010  41.7958 0000857  52.1817 307.9127 12.62269178191991
